EXPRESS-AMU1            
1 41191U 15082A   20081.12827125  .00000136  00000-0  00000+0 0  9990
2 41191   0.0259 184.7614 0002777 161.9645 274.6686  1.00267975 15653
GAOFEN 4                
1 41194U 15083A   20081.16646575 -.00000354  00000-0  00000+0 0  9999
2 41194   0.0302 288.5522 0003549 248.1116 168.0836  1.00270416 15630
BELINTERSAT-1           
1 41238U 16001A   20081.42618851  .00000088  00000-0  00000+0 0  9997
2 41238   0.0293 265.3281 0000497 224.5528 254.4065  1.00270690 15400
JASON-3                 
1 41240U 16002A   20081.20486037 -.00000062  00000-0 -25822-5 0  9995
2 41240  66.0410 188.4436 0007977 272.0211  87.9890 12.80929200195255
IRNSS-1E                
1 41241U 16003A   20079.45743845 -.00000298  00000-0  00000+0 0  9999
2 41241  29.0241  97.7095 0020605 189.1302 167.0886  1.00270466 15329
EUTELSAT 9B             
1 41310U 16005A   20081.37479831  .00000043  00000-0  00000+0 0  9990
2 41310   0.0885  82.9537 0004757 235.9738   4.3081  1.00273350 15256
NAVSTAR 76 (USA 266)    
1 41328U 16007A   20080.85719562 -.00000045  00000-0  00000+0 0  9994
2 41328  54.8213 179.9503 0038747 219.8053 139.9140  2.00560956 30175
COSMOS 2514 [GLONASS-M] 
1 41330U 16008A   20080.38489872 -.00000076  00000-0  00000+0 0  9998
2 41330  65.4743  30.4119 0010025 229.1681 313.7027  2.13102978 32031
KMS 4                   
1 41332U 16009A   20080.77712108  .00001644  00000-0  51969-4 0  9991
2 41332  97.3304 152.7487 0023360  32.3559 327.9111 15.34009453230133
SENTINEL-3A             
1 41335U 16011A   20081.48644712 -.00000008  00000-0  14644-4 0  9994
2 41335  98.6334 149.4829 0001424  95.2406 264.8937 14.26732768213130
HORYU-4                 
1 41340U 16012D   20081.48074237  .00000516  00000-0  32341-4 0  9997
2 41340  31.0043 172.0049 0014039 355.3932   4.6573 15.01443671224640
SES-9                   
1 41380U 16013A   20080.77917435 -.00000365  00000-0  00000+0 0  9994
2 41380   0.0353 264.7042 0001699 146.6220 156.2085  1.00271775 14899
EUTELSAT 65 WEST A      
1 41382U 16014A   20081.36924334 -.00000295  00000-0  00000+0 0  9991
2 41382   0.0234  26.9613 0001677 335.4538 244.6539  1.00271157 14796
IRNSS-1F                
1 41384U 16015A   20081.13382836  .00000137  00000-0  00000+0 0  9998
2 41384   2.2830 224.4081 0021947 180.4870 214.7879  1.00275994 14830
RESURS P3               
1 41386U 16016A   20081.44274825  .00000428  00000-0  15758-4 0  9997
2 41386  97.2421 171.4930 0006422  90.7331  41.1402 15.33017778224946
COSMOS 2515             
1 41394U 16020A   20080.10122115 -.00000058  00000-0  33139-6 0  9992
2 41394  97.7715  22.7443 0033998  58.0277 302.4238 14.98847297218194
BEIDOU IGSO-6           
1 41434U 16021A   20079.65968682 -.00000126  00000-0  00000+0 0  9993
2 41434  56.9156  61.4703 0039358 212.5533 237.5847  1.00277542 14627
SENTINEL-1B             
1 41456U 16025A   20081.49841392 -.00000031  00000-0  31634-5 0  9992
2 41456  98.1819  89.5507 0001429  83.3673 276.7694 14.59198383207908
MICROSCOPE              
1 41457U 16025B   20081.00821940  .00000101  00000-0  34502-4 0  9990
2 41457  98.2451  86.8157 0001881  74.6641 285.4763 14.54124396207073
E-ST@R-II               
1 41459U 16025D   20081.37851742  .00002487  00000-0  12811-3 0  9992
2 41459  98.0939 186.8417 0166643 147.8517 213.3017 15.06169501214184
AAUSAT 4                
1 41460U 16025E   20081.24946598  .00003357  00000-0  16699-3 0  9999
2 41460  98.0901 188.7331 0155557 138.0609 223.2708 15.08373987214349
DIWATA-1                
1 41463U 98067HT  20081.46129043  .00333387  68857-4  27952-3 0  9991
2 41463  51.6170 229.5215 0005375 310.1610 150.9389 16.13126774223839
MVL-300                 
1 41464U 16026A   20081.07123096  .00000463  00000-0  17629-4 0  9995
2 41464  97.1590 330.0767 0010403 219.5499 276.4086 15.31470108217637
AIST-2D (RS-48)         
1 41465U 16026B   20081.47711866  .00001372  00000-0  43322-4 0  9997
2 41465  97.1622 334.0624 0010113 198.7534 286.8139 15.34469753217930
IRNSS-1G                
1 41469U 16027A   20081.52063372 -.00000356  00000-0  00000+0 0  9993
2 41469   2.3097 227.2312 0004661 208.3301  60.9075  1.00274600 14349
JCSAT-2B                
1 41471U 16028A   20080.71785303 -.00000186  00000-0  00000+0 0  9993
2 41471   0.0194 169.3596 0001861 195.4820 226.2554  1.00271561 14236
YAOGAN 30               
1 41473U 16029A   20081.40482476  .00000026  00000-0  10948-4 0  9997
2 41473  97.8717 136.0278 0017191  28.3536 331.8616 14.76305769207457
GSAT0211 (GALILEO 14)   
1 41549U 16030A   20079.15718490  .00000011  00000-0  00000+0 0  9997
2 41549  56.3663 284.4265 0003211 351.4662   8.5578  1.70474758 23763
GSAT0210 (GALILEO 13)   
1 41550U 16030B   20076.51724365  .00000009  00000-0  00000+0 0  9991
2 41550  56.3667 284.5006 0001594 327.7306  32.2836  1.70474774 23710
THAICOM 8               
1 41552U 16031A   20079.85674267 -.00000142  00000-0  00000+0 0  9998
2 41552   0.0605  34.4991 0006085 350.9351 179.3206  1.00269940 13918
COSMOS 2516 [GLONASS-M] 
1 41554U 16032A   20081.41855035  .00000034  00000-0  00000+0 0  9999
2 41554  64.1487 269.9488 0010252 214.1178 292.4534  2.13101730 29661
ZIYUAN 3-2 (ZY 3-2)     
1 41556U 16033A   20081.51213256  .00000553  00000-0  27741-4 0  9998
2 41556  97.3692 158.5029 0002825 356.4349 118.4106 15.21317508211547
NUSAT-1 (FRESCO)        
1 41557U 16033B   20081.49114346  .00001347  00000-0  52221-4 0  9999
2 41557  97.4033 172.3072 0014663  44.8203 315.4218 15.27816560212340
NUSAT-2 (BATATA)        
1 41558U 16033C   20081.50454990  .00001553  00000-0  56376-4 0  9998
2 41558  97.4078 174.3010 0013655  43.3833 316.8480 15.29776814212443
COSMOS 2517 (GEO-IK 2)  
1 41579U 16034A   20081.49124741 -.00000048  00000-0 -32131-5 0  9992
2 41579  99.2522  95.1180 0001050 112.9760 247.1510 13.85899401191990
INTELSAT 31 (IS-31)     
1 41581U 16035A   20081.01646605 -.00000171  00000-0  00000+0 0  9992
2 41581   0.0128 205.7459 0003001 351.1842 252.9065  1.00272497 13849
BEIDOU-2 G7             
1 41586U 16037A   20081.17650081 -.00000373  00000-0  00000+0 0  9993
2 41586   1.3278  60.7578 0008653   4.3984 288.0010  1.00277194 13936
ABS-2A (MONGOLSAT-1)    
1 41588U 16038A   20081.01300705 -.00000104  00000-0  00000+0 0  9996
2 41588   0.0038 228.6573 0001662  62.2784 327.4422  1.00271464 13852
EUTELSAT 117 WEST B     
1 41589U 16038B   20081.46269226 -.00000031  00000-0  00000+0 0  9997
2 41589   0.0417  18.0204 0000259 289.7150 281.2612  1.00272436 13858
BRISAT                  
1 41591U 16039A   20080.50813116 -.00000217  00000-0  00000+0 0  9994
2 41591   0.0210 207.7967 0002087 155.9297 148.1718  1.00272503 13787
ECHOSTAR 18             
1 41592U 16039B   20080.00952054 -.00000304  00000-0  00000+0 0  9992
2 41592   0.0187 154.8459 0001515 213.3805 111.8241  1.00271714 13767
CARTOSAT-2C             
1 41599U 16040A   20081.43988634  .00000257  00000-0  15423-4 0  9998
2 41599  97.4606 142.0789 0014567 151.2057 265.7687 15.19247029207737
SKYSAT-C1               
1 41601U 16040C   20081.52366981  .00000921  00000-0  38896-4 0  9994
2 41601  97.3420 160.8144 0008192   9.5959 106.6350 15.25714427208212
GHGSAT-D                
1 41602U 16040D   20081.13251068  .00000769  00000-0  35677-4 0  9995
2 41602  97.3215 141.4712 0010245 135.6572 224.5487 15.22910044208036
LAPAN-A3                
1 41603U 16040E   20081.51498852  .00000026  00000-0  43148-5 0  9991
2 41603  97.3207 137.7581 0014208 143.9426 328.8467 15.19808004207788
BIROS                   
1 41604U 16040F   20081.15319240  .00000482  00000-0  24102-4 0  9999
2 41604  97.3259 140.9834 0013646 130.5445 229.6982 15.21948429207948
M3MSAT                  
1 41605U 16040G   20080.72255419  .00000487  00000-0  24755-4 0  9998
2 41605  97.3253 139.4392 0013146 143.7499 216.4630 15.21308827207806
FLOCK 2P-6              
1 41606U 16040H   20080.72559330  .00001436  00000-0  58175-4 0  9996
2 41606  97.3352 146.0625 0011678 122.9360 237.3004 15.26211031208223
SWAYAM                  
1 41607U 16040J   20080.69949471  .00001537  00000-0  66226-4 0  9990
2 41607  97.3284 142.1265 0014484 135.1186 225.1226 15.23986036207901
FLOCK 2P-11             
1 41608U 16040K   20081.43512799  .00003940  00000-0  14703-3 0  9995
2 41608  97.3311 147.3160 0011013 117.1721 243.0643 15.27931317208329
FLOCK 2P-2              
1 41609U 16040L   20081.13652517  .00002730  00000-0  10686-3 0  9998
2 41609  97.3350 146.4204 0011385 121.6138 238.6213 15.26601475208204
FLOCK 2P-9              
1 41610U 16040M   20080.46785047  .00002583  00000-0  10282-3 0  9998
2 41610  97.3353 145.6101 0012056 123.7471 236.4918 15.26080920207972
FLOCK 2P-4              
1 41611U 16040N   20081.15947826  .00003352  00000-0  12772-3 0  9992
2 41611  97.3367 147.4010 0011059 127.7944 232.4299 15.27348548208285
FLOCK 2P-10             
1 41612U 16040P   20081.16427968  .00001591  00000-0  64262-4 0  9999
2 41612  97.3394 147.1034 0011562 130.2509 229.9742 15.26168387208255
FLOCK 2P-8              
1 41613U 16040Q   20081.15142062  .00001355  00000-0  55315-4 0  9995
2 41613  97.3387 146.8915 0011851 129.2018 231.0275 15.26064242208245
FLOCK 2P-12             
1 41614U 16040R   20081.17715109  .00001517  00000-0  61611-4 0  9992
2 41614  97.3397 147.1938 0011599 130.3075 229.9179 15.26054076208255
FLOCK 2P-7              
1 41615U 16040S   20081.17321241  .00004016  00000-0  15076-3 0  9993
2 41615  97.3338 147.3747 0010861 127.4965 232.7264 15.27722955208297
FLOCK 2P-5              
1 41616U 16040T   20081.15428220  .00003375  00000-0  13157-3 0  9992
2 41616  97.3384 147.2094 0011203 127.7370 232.4886 15.26576569208235
FLOCK 2P-1              
1 41617U 16040U   20080.40826953  .00003440  00000-0  13116-3 0  9993
2 41617  97.3366 146.7787 0010839 129.9940 230.2253 15.27304611208164
